0 ORBCOMM FM 28
1 25482U 98053H   13282.12964466  .00000366  00000-0  18883-3 0  8445
2 25482 045.0083 147.9831 0003271 266.9410 232.9917 14.31503146785817
0 ORBCOMM FM 28
1 25482U 98053H   13283.78777344  .00000436  00000-0  21507-3 0  8451
2 25482 045.0083 140.2048 0003214 272.5546 140.6379 14.31504652786050
0 ORBCOMM FM 28
1 25482U 98053H   13286.44329322  .00000612  00000-0  28066-3 0  8471
2 25482 045.0084 127.7479 0003084 280.9183 150.4791 14.31505815786435
0 ORBCOMM FM 28
1 25482U 98053H   13287.76779385  .00000767  00000-0  33840-3 0  8483
2 25482 045.0085 121.5346 0003015 286.0005 137.6892 14.31508958786626
0 ORBCOMM FM 28
1 25482U 98053H   13289.50517244  .00000568  00000-0  26406-3 0  8491
2 25482 045.0087 113.3846 0002907 291.5576 094.2280 14.31514064786876
0 ORBCOMM FM 28
1 25482U 98053H   13290.64007546  .00000634  00000-0  28864-3 0  8503
2 25482 045.0090 108.0608 0002855 296.6031 183.4844 14.31516346787032
0 ORBCOMM FM 28
1 25482U 98053H   13291.74796485  .00000646  00000-0  29316-3 0  8519
2 25482 045.0092 102.8638 0002795 301.2386 133.8160 14.31517796787195
0 ORBCOMM FM 28
1 25482U 98053H   13292.80612193  .00000788  00000-0  34597-3 0  8525
2 25482 045.0094 097.9001 0002729 304.9124 188.5783 14.31518931787349
0 ORBCOMM FM 28
1 25482U 98053H   13293.92969769  .00000897  00000-0  38675-3 0  8536
2 25482 045.0095 092.6295 0002656 308.8778 220.5129 14.31520810787502
0 ORBCOMM FM 28
1 25482U 98053H   13295.51165167  .00001074  00000-0  45266-3 0  8546
2 25482 045.0097 085.2087 0002537 314.8770 094.9431 14.31523749787725
